[{"OBJECT_NAME":"HAIYANG 4-01","OBJECT_ID":"2024-208A","EPOCH":"2026-03-09T23:12:53.957952","MEAN_MOTION":14.73328674,"ECCENTRICITY":0.00022294,"INCLINATION":98.0072,"RA_OF_ASC_NODE":78.0681,"ARG_OF_PERICENTER":108.1992,"MEAN_ANOMALY":251.9459,"EPHEMERIS_TYPE":0,"CLASSIFICATION_TYPE":"U","NORAD_CAT_ID":61936,"ELEMENT_SET_NO":999,"REV_AT_EPOCH":7083,"BSTAR":0.00012921781,"MEAN_MOTION_DOT":7.86e-6,"MEAN_MOTION_DDOT":0},{"OBJECT_NAME":"SL-18 DEB","OBJECT_ID":"1993-014V","EPOCH":"2026-03-09T00:53:17.812608","MEAN_MOTION":14.46703357,"ECCENTRICITY":0.01293409,"INCLINATION":75.7563,"RA_OF_ASC_NODE":207.9568,"ARG_OF_PERICENTER":299.2869,"MEAN_ANOMALY":59.5422,"EPHEMERIS_TYPE":0,"CLASSIFICATION_TYPE":"U","NORAD_CAT_ID":28292,"ELEMENT_SET_NO":999,"REV_AT_EPOCH":66951,"BSTAR":0.00069100481,"MEAN_MOTION_DOT":2.755e-5,"MEAN_MOTION_DDOT":0}]
